{
"type": "FeatureCollection",
"name": "field",
"crs": { "type": "name", "properties": { "name": "urn:ogc:def:crs:OGC:1.3:CRS84" } },
"features": [
{ "type": "Feature", "properties": { }, "geometry": { "type": "MultiPolygon", "coordinates": [ [ [ [ 142.84881177394999, 43.170451373409996 ], [ 142.84881177394999, 43.165597692009996 ], [ 142.85147397918999, 43.165597692009996 ], [ 142.85147397918999, 43.170451373409996 ], [ 142.84881177394999, 43.170451373409996 ] ], [ [ 142.849835462569985, 43.170428871409996 ], [ 142.85005680064998, 43.170408619609994 ], [ 142.850244323189997, 43.170338863409995 ], [ 142.850321176689988, 43.170266857009999 ], [ 142.850370362929993, 43.170172348609995 ], [ 142.850382659489981, 43.170107092809999 ], [ 142.850361140509989, 43.169931577209994 ], [ 142.850444142290002, 43.169850570009999 ], [ 142.850514847509999, 43.169843819409998 ], [ 142.850502550949983, 43.169765062409994 ], [ 142.850616294129992, 43.169681805009994 ], [ 142.850662406229986, 43.169686305409996 ], [ 142.850680851069995, 43.169564794609997 ], [ 142.850742333869988, 43.169450034409998 ], [ 142.850849928770003, 43.169420781809997 ], [ 142.850886818449993, 43.169384778609995 ], [ 142.850960597810001, 43.169254267009997 ], [ 142.850954449529979, 43.169202512409996 ], [ 142.850982116789993, 43.169148507609997 ], [ 142.851221899709998, 43.16900899521 ], [ 142.851268011809992, 43.168887484409993 ], [ 142.851289530789984, 43.168876233409996 ], [ 142.851298753209988, 43.168810977609994 ], [ 142.851271085950003, 43.168480198209998 ], [ 142.851354087729987, 43.168399191009996 ], [ 142.851440163649983, 43.168390190209998 ], [ 142.851381754990001, 43.168052660209995 ], [ 142.851357161869998, 43.167778135809996 ], [ 142.85124341868999, 43.167107576209993 ], [ 142.851172713469992, 43.166853303609997 ], [ 142.851154268629983, 43.166837552209998 ], [ 142.85114812034999, 43.166785797609997 ], [ 142.851132749649992, 43.166779047009996 ], [ 142.851126601369998, 43.166727292409995 ], [ 142.85111123067, 43.166718291609996 ], [ 142.851046673729996, 43.166522524209995 ], [ 142.850908337429985, 43.165685449809999 ], [ 142.850736185589994, 43.165622444209994 ], [ 142.85049947681, 43.165662947809999 ], [ 142.850456438849989, 43.165644946209994 ], [ 142.850241249049986, 43.165676449009993 ], [ 142.850195136949992, 43.165667448209994 ], [ 142.850170543829989, 43.165687700009997 ], [ 142.850081393769983, 43.165671948609997 ], [ 142.84971249697, 43.165728203609994 ], [ 142.849620272769982, 43.165712452209995 ], [ 142.849300562209976, 43.165773207609995 ], [ 142.849223708709985, 43.165743955009994 ], [ 142.849131484509996, 43.165748455409997 ], [ 142.84910074311, 43.165773207609995 ], [ 142.84894703610999, 43.165806960609999 ], [ 142.848842515349986, 43.165912720009999 ], [ 142.848867108469989, 43.16616924281 ], [ 142.849002370629989, 43.16664628521 ], [ 142.849051556869995, 43.167143579409995 ], [ 142.849128410369985, 43.167557616209997 ], [ 142.849202189729994, 43.167832140609995 ], [ 142.849214486289981, 43.167836641009998 ], [ 142.849395860550004, 43.168547704209999 ], [ 142.849414305389985, 43.168561205409993 ], [ 142.849460417489979, 43.168741221409995 ], [ 142.849478862329988, 43.168756972809994 ], [ 142.849481936469999, 43.168804227009993 ], [ 142.849497307169997, 43.168810977609994 ], [ 142.849503455449991, 43.168867232609998 ], [ 142.849518826149989, 43.168876233409996 ], [ 142.849537270989998, 43.168939239009994 ], [ 142.849598753789991, 43.169225014409996 ], [ 142.849614124489989, 43.169335274209999 ], [ 142.849607976209995, 43.169434283009998 ], [ 142.849657162450001, 43.169789814609999 ], [ 142.849706348689978, 43.169987832209998 ], [ 142.849718645249993, 43.169992332609993 ], [ 142.84978935046999, 43.170316361409995 ], [ 142.849807795309999, 43.170332112809994 ], [ 142.849835462569985, 43.170428871409996 ] ] ] ] } }
]
}
